#cP2018  1 12  0  0  0.00000000      96 ORBIT IGS14 HLM  IGS
## 1983 432000.00000000   900.00000000 58130 0.0000000000000
+   32   G01G02G03G04G05G06G07G08G09G10G11G12G13G14G15G16G17
+        G18G19G20G21G22G23G24G25G26G27G28G29G30G31G32  0  0
+          0  0  0  0  0  0  0  0  0  0  0  0  0  0  0  0  0
+          0  0  0  0  0  0  0  0  0  0  0  0  0  0  0  0  0
+          0  0  0  0  0  0  0  0  0  0  0  0  0  0  0  0  0
++         2  2  2  0  2  3  2  2  2  2  2  2  2  2  2  2  2
++         2  2  2  2  3  2  1  2  2  2  2  2  2  2  2  0  0
++         0  0  0  0  0  0  0  0  0  0  0  0  0  0  0  0  0
++         0  0  0  0  0  0  0  0  0  0  0  0  0  0  0  0  0
++         0  0  0  0  0  0  0  0  0  0  0  0  0  0  0  0  0
%c G  cc GPS ccc cccc cccc cccc cccc ccccc ccccc ccccc ccccc
%c cc cc ccc ccc cccc cccc cccc cccc ccccc ccccc ccccc ccccc
%f  1.2500000  1.025000000  0.00000000000  0.000000000000000
%f  0.0000000  0.000000000  0.00000000000  0.000000000000000
%i    0    0    0    0      0      0      0      0         0
%i    0    0    0    0      0      0      0      0         0
/* FINAL ORBIT COMBINATION FROM WEIGHTED AVERAGE OF:        
/* cod emr esa gfz grg jpl mit ngs sio                      
/* REFERENCED TO IGS TIME (IGST) AND TO WEIGHTED MEAN POLE: 
/* PCV:IGS14_1984 OL/AL:FES2004  NONE     Y  ORB:CMB CLK:CMB
*  2018  1 12 15 45  0.00000000
PG01 -13470.586344  19074.277065  12247.949765    -23.212744  6  5  6  82       
PG02  14649.810543   4273.204420 -21207.374975    230.132223  6  5  5  97       
PG03 -20750.950187  13231.484729  -9944.452648    -11.152919  6  4  3  69       
PG04 -14249.080709 -10302.324149 -20227.217845 999999.999999
PG05  25110.532648  -1014.412436  -9010.176786    -17.166352  8  8  7  82       
PG06   9220.242574  16380.619620 -18727.466697    414.696615  4  4  5  94       
PG07  -5086.894094  25722.223164   2465.355103    252.541697  4  8  6  20       
PG08 -17853.371728   1808.206804  19681.932210    -87.436389  6  3  4  93       
PG09   1259.884260  19139.743277 -18405.898745    492.386824  5  6  7  80       
PG10  -8902.404791 -13003.527828  21425.415536    144.909365  6  5  4  83       
PG11 -11084.711310  16221.184307  17372.452079   -733.779525  3  7  4 108       
PG12  22837.745358 -10668.861674  -8208.036931    355.822248  8  8  7 102       
PG13  20016.460752   7374.116666  15697.772106    -95.309348  5  2  6  94       
PG14 -18759.242661 -18775.595883  -2152.100455    -92.276728  7  4  4  56       
PG15  17573.473008  -4331.223015  19348.749557   -357.378811  6  6  4  94       
PG16 -25400.439798   -576.166099  -8579.974871     34.151894  6  8  4 112       
PG17  14073.393171  21649.904438   6908.327550   -131.399750  4  4  5  67       
PG18   3084.484224 -17339.543039  20441.278931    633.556813  4  7  6  86       
PG19  18084.991380  19236.198855  -1794.849644   -464.156959  5  4  4  90       
PG20  21332.733599 -14174.403438   6803.423668    498.096834  8  8  2  97       
PG21   1492.673356 -26151.992692   5029.218356   -442.557717  5  7  6 118       
PG22 -24325.024267  10371.416324  -2358.678801   -254.517195 11  8  4  94       
PG23 -10431.742119  11418.509228 -21325.237780   -219.096769  6  6  6  94       
PG24  14271.257276 -16714.773518  14605.041587    -44.685051  5  3  4  86       
PG25  12007.533800 -15861.589278 -17641.214117   -521.195198  7  7  4  57       
PG26 -19278.889046  -6655.428913 -17074.936600   -290.080761  6  4  3 104       
PG27 -21832.120408 -10098.826971  11466.440506    362.128636  4  4  3  80       
PG28   4127.269966  14383.618235  22577.898212    679.201634  4  6  1  87       
PG29   3498.971897 -16433.979500 -20584.474734    512.135581  8  9  7  65       
PG30    868.880983  24119.040691  10925.013600    113.127991  2  1  5  81       
PG31  -9592.295232 -15293.052200 -19283.963405    149.113021  5  6  7 109       
PG32 -15841.952102 -20580.981404   5750.263098   -532.735263  5  4  4  92       
*  2018  1 12 16  0  0.00000000
PG01 -13335.302618  17506.510306  14527.411875    -23.214199  6  5  6  97       
PG02  14230.343621   6763.183553 -20876.586608    230.122953  5  5  4 108       
PG03 -21763.199990  13309.420606  -7321.979609    -11.146945  6  4  3  71       
PG04 -12045.675974 -11009.911873 -21247.518346 999999.999999
PG05  24098.015649   -407.079589 -11489.320859    -17.165381  7  8  7  83       
PG06   8669.829302  18362.683287 -17081.042324    414.696797  4  3  5 102       
PG07  -5392.408950  25751.066807   -412.368906    252.537025  4  8  7  73       
PG08 -19398.829030    304.200927  18254.992891    -87.438323  6  4  4  98       
PG09   -462.762975  17800.151971 -19742.376061    492.389889  5  6  7 110       
PG10  -6569.355812 -13795.658842  21757.188040    144.914529  6  5  3  96       
PG11 -11725.431951  14125.550257  18678.805428   -733.780620  3  8  4  92       
PG12  23620.817072 -10684.555472  -5429.553117    355.820533  7  8  7  97       
PG13  20999.394015   8763.103067  13570.806759    -95.309479  5  2  6  88       
PG14 -18661.497765 -19024.948980    692.651399    -92.277196  6  4  4  83       
PG15  19213.272756  -2889.081955  18064.073749   -357.378877  6  5  5 100       
PG16 -24363.007999   -954.353219 -11164.922089     34.151108  4  7  4 115       
PG17  13325.068795  21139.184806   9589.422719   -131.397462  4  5  5  84       
PG18   5164.476320 -18001.013915  19376.010454    633.556848  5  7  7  92       
PG19  17929.559016  19390.704481   1109.185301   -464.154331  5  4  4  98       
PG20  22060.977104 -14124.273417   4106.683731    498.098606  7  9  3  91       
PG21   1843.283182 -26429.816188   2247.299122   -442.553745  5  8  6 123       
PG22 -24580.996132  10087.911923    418.840490   -254.529075 10  9  4  93       
PG23 -12304.271648   9773.129946 -21184.016124   -219.096775  5  6  7 105       
PG24  14187.440420 -14888.097997  16546.819000    -44.685506  4  3  4 107       
PG25  13850.242824 -16300.202284 -15753.602974   -521.200669  7  7  3  56       
PG26 -17393.290485  -7455.976973 -18681.646765   -290.068177  6  5  3 116       
PG27 -22587.284851 -11002.668678   8921.611821    362.130492  4  4  3  80       
PG28   1755.646369  14938.167579  22528.377072    679.204535  4  7  2 109       
PG29   5223.580031 -14767.434986 -21462.467899    512.131059  8 10  7  86       
PG30    312.199177  25120.011521   8393.900112    113.125111  2  2  5  81       
PG31  -8937.955767 -17338.814455 -17776.874455    149.110609  5  7  7  84       
PG32 -15073.613350 -20229.421468   8437.878427   -532.735792  5  4  3  37       
*  2018  1 12 16 15  0.00000000
PG01 -13244.967066  15691.009918  16551.422996    -23.215696  5  5  6  66       
PG02  13939.645341   9206.965482 -20169.661585    230.113766  4  3  4  95       
PG03 -22486.803796  13328.837045  -4573.204872    -11.140963  7  4  4  73       
PG04  -9795.109875 -11872.771255 -21911.567339 999999.999999
PG05  22870.243573    352.647212 -13773.809402    -17.164163  6  7  7  73       
PG06   8255.955769  20169.848091 -15139.846354    414.696999  5  4  4  89       
PG07  -5642.065676  25470.816533  -3282.771332    252.531907  4  8  7  79       
PG08 -20881.352644  -1004.683398  16516.699727    -87.439507  5  5  4  84       
PG09  -2354.987983  16468.944083 -20740.125880    492.392938  5  6  7 101       
PG10  -4264.227716 -14715.015230  21715.707947    144.919696  5  5  3 101       
PG11 -12487.981705  11929.139392  19649.942270   -733.781229  3  8  4  98       
PG12  24096.769375 -10643.333295  -2556.868899    355.818920  7  8  7  95       
PG13  21875.149128   9915.512682  11208.534967    -95.309665  5  1  5 101       
PG14 -18344.607184 -19059.169463   3525.637805    -92.277795  6  4  4  82       
PG15  20781.740863  -1620.247234  16467.448640   -357.378707  6  5  5  96       
PG16 -23081.421021  -1473.080767 -13563.155508     34.150612  4  7  3 116       
PG17  12332.625391  20477.847258  12109.259637   -131.395103  4  7  5  82       
PG18   7091.612176 -18706.284768  17991.449234    633.556798  5  7  7  91       
PG19  17543.671759  19325.200023   3993.825777   -464.152212  5  5  4  91       
PG20  22515.587285 -13967.998799   1338.885583    498.099072  7  9  3  95       
PG21   2153.096342 -26410.768468   -573.100608   -442.550338  5  8  6 119       
PG22 -24564.555976   9689.956823   3189.185211   -254.541027 10  9  5  94       
PG23 -14221.762830   8246.940175 -20670.596585   -219.096572  5  6  7  95       
PG24  14169.147054 -12857.421269  18198.511014    -44.685340  3  4  4 113       
PG25  15455.295592 -16754.844793 -13595.052454   -521.206144  6  7  2  70       
PG26 -15399.602048  -8415.556329 -19968.021889   -290.055663  7  5  4 122       
PG27 -23158.679470 -11679.220563   6224.962180    362.132346  3  4  3  87       
PG28   -555.537202  15622.130760  22113.386349    679.207533  4  7  3 110       
PG29   7096.821526 -13146.779719 -21971.600271    512.126156  8 10  7  82       
PG30   -134.236047  25858.528434   5717.129836    113.122225  2  4  5  67       
PG31  -8423.976331 -19231.471285 -15958.021730    149.108453  5  7  7 100       
PG32 -14055.996541 -19735.295028  10980.941405   -532.736276  5  4  3  72       
EOF
